<?xml version="1.0" encoding="UTF-8"?>
<ndm xmlns:xsi="http://www.w3.org/2001/XMLSchema-instance" xsi:noNamespaceSchemaLocation="https://sanaregistry.org/r/ndmxml_unqualified/ndmxml-2.0.0-master-2.0.xsd">
<omm id="CCSDS_OMM_VERS" version="2.0">
<header><CREATION_DATE/><ORIGINATOR/></header><body><segment><metadata><OBJECT_NAME>ORBCOMM-X</OBJECT_NAME><OBJECT_ID>1991-050C</OBJECT_ID><CENTER_NAME>EARTH</CENTER_NAME><REF_FRAME>TEME</REF_FRAME><TIME_SYSTEM>UTC</TIME_SYSTEM><MEAN_ELEMENT_THEORY>SGP4</MEAN_ELEMENT_THEORY></metadata><data><meanElements><EPOCH>2024-06-12T18:39:41.123520</EPOCH><MEAN_MOTION>14.42549258</MEAN_MOTION><ECCENTRICITY>.000306</ECCENTRICITY><INCLINATION>98.3895</INCLINATION><RA_OF_ASC_NODE>232.0731</RA_OF_ASC_NODE><ARG_OF_PERICENTER>204.2913</ARG_OF_PERICENTER><MEAN_ANOMALY>155.8133</MEAN_ANOMALY></meanElements><tleParameters><EPHEMERIS_TYPE>0</EPHEMERIS_TYPE><CLASSIFICATION_TYPE>U</CLASSIFICATION_TYPE><NORAD_CAT_ID>21576</NORAD_CAT_ID><ELEMENT_SET_NO>999</ELEMENT_SET_NO><REV_AT_EPOCH>72884</REV_AT_EPOCH><BSTAR>.18442E-3</BSTAR><MEAN_MOTION_DOT>.568E-5</MEAN_MOTION_DOT><MEAN_MOTION_DDOT>0</MEAN_MOTION_DDOT></tleParameters></data></segment></body></omm>
<omm id="CCSDS_OMM_VERS" version="2.0">
<header><CREATION_DATE/><ORIGINATOR/></header><body><segment><metadata><OBJECT_NAME>ORBCOMM FM01</OBJECT_NAME><OBJECT_ID>1995-017A</OBJECT_ID><CENTER_NAME>EARTH</CENTER_NAME><REF_FRAME>TEME</REF_FRAME><TIME_SYSTEM>UTC</TIME_SYSTEM><MEAN_ELEMENT_THEORY>SGP4</MEAN_ELEMENT_THEORY></metadata><data><meanElements><EPOCH>2024-06-12T16:21:09.786528</EPOCH><MEAN_MOTION>14.80575953</MEAN_MOTION><ECCENTRICITY>.000591</ECCENTRICITY><INCLINATION>69.9673</INCLINATION><RA_OF_ASC_NODE>268.9955</RA_OF_ASC_NODE><ARG_OF_PERICENTER>194.1361</ARG_OF_PERICENTER><MEAN_ANOMALY>165.9624</MEAN_ANOMALY></meanElements><tleParameters><EPHEMERIS_TYPE>0</EPHEMERIS_TYPE><CLASSIFICATION_TYPE>U</CLASSIFICATION_TYPE><NORAD_CAT_ID>23545</NORAD_CAT_ID><ELEMENT_SET_NO>999</ELEMENT_SET_NO><REV_AT_EPOCH>55763</REV_AT_EPOCH><BSTAR>.92144E-3</BSTAR><MEAN_MOTION_DOT>.7007E-4</MEAN_MOTION_DOT><MEAN_MOTION_DDOT>0</MEAN_MOTION_DDOT></tleParameters></data></segment></body></omm>
<omm id="CCSDS_OMM_VERS" version="2.0">
<header><CREATION_DATE/><ORIGINATOR/></header><body><segment><metadata><OBJECT_NAME>ORBCOMM FM02</OBJECT_NAME><OBJECT_ID>1995-017B</OBJECT_ID><CENTER_NAME>EARTH</CENTER_NAME><REF_FRAME>TEME</REF_FRAME><TIME_SYSTEM>UTC</TIME_SYSTEM><MEAN_ELEMENT_THEORY>SGP4</MEAN_ELEMENT_THEORY></metadata><data><meanElements><EPOCH>2024-06-12T18:52:26.066784</EPOCH><MEAN_MOTION>14.80203688</MEAN_MOTION><ECCENTRICITY>.0007459</ECCENTRICITY><INCLINATION>69.9695</INCLINATION><RA_OF_ASC_NODE>288.2169</RA_OF_ASC_NODE><ARG_OF_PERICENTER>179.9417</ARG_OF_PERICENTER><MEAN_ANOMALY>180.1735</MEAN_ANOMALY></meanElements><tleParameters><EPHEMERIS_TYPE>0</EPHEMERIS_TYPE><CLASSIFICATION_TYPE>U</CLASSIFICATION_TYPE><NORAD_CAT_ID>23546</NORAD_CAT_ID><ELEMENT_SET_NO>999</ELEMENT_SET_NO><REV_AT_EPOCH>55729</REV_AT_EPOCH><BSTAR>.10215E-2</BSTAR><MEAN_MOTION_DOT>.771E-4</MEAN_MOTION_DOT><MEAN_MOTION_DDOT>0</MEAN_MOTION_DDOT></tleParameters></data></segment></body></omm>
<omm id="CCSDS_OMM_VERS" version="2.0">
<header><CREATION_DATE/><ORIGINATOR/></header><body><segment><metadata><OBJECT_NAME>ORBCOMM FM08</OBJECT_NAME><OBJECT_ID>1997-084A</OBJECT_ID><CENTER_NAME>EARTH</CENTER_NAME><REF_FRAME>TEME</REF_FRAME><TIME_SYSTEM>UTC</TIME_SYSTEM><MEAN_ELEMENT_THEORY>SGP4</MEAN_ELEMENT_THEORY></metadata><data><meanElements><EPOCH>2024-06-12T20:14:39.572448</EPOCH><MEAN_MOTION>14.42780560</MEAN_MOTION><ECCENTRICITY>.0008346</ECCENTRICITY><INCLINATION>45.0159</INCLINATION><RA_OF_ASC_NODE>336.9030</RA_OF_ASC_NODE><ARG_OF_PERICENTER>186.0039</ARG_OF_PERICENTER><MEAN_ANOMALY>174.0713</MEAN_ANOMALY></meanElements><tleParameters><EPHEMERIS_TYPE>0</EPHEMERIS_TYPE><CLASSIFICATION_TYPE>U</CLASSIFICATION_TYPE><NORAD_CAT_ID>25112</NORAD_CAT_ID><ELEMENT_SET_NO>999</ELEMENT_SET_NO><REV_AT_EPOCH>38797</REV_AT_EPOCH><BSTAR>.79157E-3</BSTAR><MEAN_MOTION_DOT>.2522E-4</MEAN_MOTION_DOT><MEAN_MOTION_DDOT>0</MEAN_MOTION_DDOT></tleParameters></data></segment></body></omm>
<omm id="CCSDS_OMM_VERS" version="2.0">
<header><CREATION_DATE/><ORIGINATOR/></header><body><segment><metadata><OBJECT_NAME>ORBCOMM FM10</OBJECT_NAME><OBJECT_ID>1997-084B</OBJECT_ID><CENTER_NAME>EARTH</CENTER_NAME><REF_FRAME>TEME</REF_FRAME><TIME_SYSTEM>UTC</TIME_SYSTEM><MEAN_ELEMENT_THEORY>SGP4</MEAN_ELEMENT_THEORY></metadata><data><meanElements><EPOCH>2024-06-12T20:27:55.333728</EPOCH><MEAN_MOTION>14.42673097</MEAN_MOTION><ECCENTRICITY>.0005769</ECCENTRICITY><INCLINATION>45.0171</INCLINATION><RA_OF_ASC_NODE>338.7431</RA_OF_ASC_NODE><ARG_OF_PERICENTER>161.3328</ARG_OF_PERICENTER><MEAN_ANOMALY>198.7735</MEAN_ANOMALY></meanElements><tleParameters><EPHEMERIS_TYPE>0</EPHEMERIS_TYPE><CLASSIFICATION_TYPE>U</CLASSIFICATION_TYPE><NORAD_CAT_ID>25113</NORAD_CAT_ID><ELEMENT_SET_NO>999</ELEMENT_SET_NO><REV_AT_EPOCH>56312</REV_AT_EPOCH><BSTAR>.72221E-3</BSTAR><MEAN_MOTION_DOT>.2282E-4</MEAN_MOTION_DOT><MEAN_MOTION_DDOT>0</MEAN_MOTION_DDOT></tleParameters></data></segment></body></omm>
<omm id="CCSDS_OMM_VERS" version="2.0">
<header><CREATION_DATE/><ORIGINATOR/></header><body><segment><metadata><OBJECT_NAME>ORBCOMM FM11</OBJECT_NAME><OBJECT_ID>1997-084C</OBJECT_ID><CENTER_NAME>EARTH</CENTER_NAME><REF_FRAME>TEME</REF_FRAME><TIME_SYSTEM>UTC</TIME_SYSTEM><MEAN_ELEMENT_THEORY>SGP4</MEAN_ELEMENT_THEORY></metadata><data><meanElements><EPOCH>2024-06-12T11:00:41.726592</EPOCH><MEAN_MOTION>14.42546705</MEAN_MOTION><ECCENTRICITY>.0006508</ECCENTRICITY><INCLINATION>45.0157</INCLINATION><RA_OF_ASC_NODE>340.7205</RA_OF_ASC_NODE><ARG_OF_PERICENTER>158.6817</ARG_OF_PERICENTER><MEAN_ANOMALY>201.4305</MEAN_ANOMALY></meanElements><tleParameters><EPHEMERIS_TYPE>0</EPHEMERIS_TYPE><CLASSIFICATION_TYPE>U</CLASSIFICATION_TYPE><NORAD_CAT_ID>25114</NORAD_CAT_ID><ELEMENT_SET_NO>999</ELEMENT_SET_NO><REV_AT_EPOCH>38803</REV_AT_EPOCH><BSTAR>.8922E-3</BSTAR><MEAN_MOTION_DOT>.2846E-4</MEAN_MOTION_DOT><MEAN_MOTION_DDOT>0</MEAN_MOTION_DDOT></tleParameters></data></segment></body></omm>
<omm id="CCSDS_OMM_VERS" version="2.0">
<header><CREATION_DATE/><ORIGINATOR/></header><body><segment><metadata><OBJECT_NAME>ORBCOMM FM12</OBJECT_NAME><OBJECT_ID>1997-084D</OBJECT_ID><CENTER_NAME>EARTH</CENTER_NAME><REF_FRAME>TEME</REF_FRAME><TIME_SYSTEM>UTC</TIME_SYSTEM><MEAN_ELEMENT_THEORY>SGP4</MEAN_ELEMENT_THEORY></metadata><data><meanElements><EPOCH>2024-06-12T20:02:21.039936</EPOCH><MEAN_MOTION>14.42512183</MEAN_MOTION><ECCENTRICITY>.000558</ECCENTRICITY><INCLINATION>45.0163</INCLINATION><RA_OF_ASC_NODE>338.6316</RA_OF_ASC_NODE><ARG_OF_PERICENTER>162.2303</ARG_OF_PERICENTER><MEAN_ANOMALY>197.8743</MEAN_ANOMALY></meanElements><tleParameters><EPHEMERIS_TYPE>0</EPHEMERIS_TYPE><CLASSIFICATION_TYPE>U</CLASSIFICATION_TYPE><NORAD_CAT_ID>25115</NORAD_CAT_ID><ELEMENT_SET_NO>999</ELEMENT_SET_NO><REV_AT_EPOCH>38788</REV_AT_EPOCH><BSTAR>.7165E-3</BSTAR><MEAN_MOTION_DOT>.2255E-4</MEAN_MOTION_DOT><MEAN_MOTION_DDOT>0</MEAN_MOTION_DDOT></tleParameters></data></segment></body></omm>
<omm id="CCSDS_OMM_VERS" version="2.0">
<header><CREATION_DATE/><ORIGINATOR/></header><body><segment><metadata><OBJECT_NAME>ORBCOMM FM09</OBJECT_NAME><OBJECT_ID>1997-084E</OBJECT_ID><CENTER_NAME>EARTH</CENTER_NAME><REF_FRAME>TEME</REF_FRAME><TIME_SYSTEM>UTC</TIME_SYSTEM><MEAN_ELEMENT_THEORY>SGP4</MEAN_ELEMENT_THEORY></metadata><data><meanElements><EPOCH>2024-06-12T18:40:08.513184</EPOCH><MEAN_MOTION>14.42473700</MEAN_MOTION><ECCENTRICITY>.0006413</ECCENTRICITY><INCLINATION>45.0168</INCLINATION><RA_OF_ASC_NODE>339.6009</RA_OF_ASC_NODE><ARG_OF_PERICENTER>147.1047</ARG_OF_PERICENTER><MEAN_ANOMALY>213.0204</MEAN_ANOMALY></meanElements><tleParameters><EPHEMERIS_TYPE>0</EPHEMERIS_TYPE><CLASSIFICATION_TYPE>U</CLASSIFICATION_TYPE><NORAD_CAT_ID>25116</NORAD_CAT_ID><ELEMENT_SET_NO>999</ELEMENT_SET_NO><REV_AT_EPOCH>38808</REV_AT_EPOCH><BSTAR>.7199E-3</BSTAR><MEAN_MOTION_DOT>.2265E-4</MEAN_MOTION_DOT><MEAN_MOTION_DDOT>0</MEAN_MOTION_DDOT></tleParameters></data></segment></body></omm>

</ndm>
