ORBCOMM-X               
1 21576U 91050C   24164.77755930  .00000568  00000+0  18442-3 0  9996
2 21576  98.3895 232.0731 0003060 204.2913 155.8133 14.42549258728842
ORBCOMM FM01            
1 23545U 95017A   24164.68136327  .00007007  00000+0  92144-3 0  9990
2 23545  69.9673 268.9955 0005910 194.1361 165.9624 14.80575953557631
ORBCOMM FM02            
1 23546U 95017B   24164.78641281  .00007710  00000+0  10215-2 0  9991
2 23546  69.9695 288.2169 0007459 179.9417 180.1735 14.80203688557298
ORBCOMM FM08            
1 25112U 97084A   24164.84351357  .00002522  00000+0  79157-3 0  9994
2 25112  45.0159 336.9030 0008346 186.0039 174.0713 14.42780560387973
ORBCOMM FM10            
1 25113U 97084B   24164.85272377  .00002282  00000+0  72221-3 0  9998
2 25113  45.0171 338.7431 0005769 161.3328 198.7735 14.42673097563122
ORBCOMM FM11            
1 25114U 97084C   24164.45881628  .00002846  00000+0  89220-3 0  9993
2 25114  45.0157 340.7205 0006508 158.6817 201.4305 14.42546705388038
ORBCOMM FM12            
1 25115U 97084D   24164.83496574  .00002255  00000+0  71650-3 0  9990
2 25115  45.0163 338.6316 0005580 162.2303 197.8743 14.42512183387884
ORBCOMM FM09            
1 25116U 97084E   24164.77787631  .00002265  00000+0  71990-3 0  9999
2 25116  45.0168 339.6009 0006413 147.1047 213.0204 14.42473700388080
